{
  "generated_at": "2026-07-13T07:11:34Z",
  "source": "CelesTrak SATCAT gp.php?GROUP=active (HEAD cache, no fetch)",
  "schema_version": "1.0",
  "records": [
    {
      "name": "FENGYUN 3D",
      "norad_id": 43010,
      "intl_designator": "17072-261",
      "line1": "1 43010U 17072A   26186.61173047  .00000097  00000+0  67845-4 0  9996",
      "line2": "2 43010  99.0140 161.3677 0001993  32.1236 328.0061 14.19743309447605",
      "category": "weather"
    },
    {
      "name": "NOAA 20 (JPSS-1)",
      "norad_id": 43013,
      "intl_designator": "17073-261",
      "line1": "1 43013U 17073A   26186.39825913  .00000076  00000+0  57248-4 0  9994",
      "line2": "2 43013  98.7772 125.6992 0000994 132.4642 227.6619 14.19515232447057",
      "category": "weather"
    },
    {
      "name": "GOES 17",
      "norad_id": 43226,
      "intl_designator": "18022-261",
      "line1": "1 43226U 18022A   26186.48768090 -.00000169  00000+0  00000+0 0  9990",
      "line2": "2 43226   0.9807  85.4269 0000699  58.1013 226.0203  1.00270863 30600",
      "category": "weather"
    },
    {
      "name": "SENTINEL-3B",
      "norad_id": 43437,
      "intl_designator": "18039-261",
      "line1": "1 43437U 18039A   26186.21308141  .00000164  00000+0  85603-4 0  9991",
      "line2": "2 43437  98.6240 253.4861 0000921 117.0798 243.0476 14.26740289426692",
      "category": "weather"
    },
    {
      "name": "FENGYUN 2H",
      "norad_id": 43491,
      "intl_designator": "18050-261",
      "line1": "1 43491U 18050A   26186.65399078 -.00000116  00000+0  00000+0 0  9992",
      "line2": "2 43491   3.0760  78.8635 0001903 122.1926  37.2943  1.00268984 29627",
      "category": "weather"
    },
    {
      "name": "METOP-C",
      "norad_id": 43689,
      "intl_designator": "18087-261",
      "line1": "1 43689U 18087A   26186.57990269  .00000121  00000+0  74921-4 0  9994",
      "line2": "2 43689  98.6635 245.8465 0002193 106.0466 254.0953 14.21517309397449",
      "category": "weather"
    },
    {
      "name": "GEO-KOMPSAT-2A",
      "norad_id": 43823,
      "intl_designator": "18100-261",
      "line1": "1 43823U 18100A   26186.53077257 -.00000330  00000+0  00000+0 0  9994",
      "line2": "2 43823   0.0414 158.2437 0002446 298.9903 145.6339  1.00272362 27819",
      "category": "weather"
    },
    {
      "name": "METEOR-M2 2",
      "norad_id": 44387,
      "intl_designator": "19038-261",
      "line1": "1 44387U 19038A   26186.57888846  .00000324  00000+0  15998-3 0  9997",
      "line2": "2 44387  98.9155 174.1364 0001243  20.5206 339.6022 14.24371708363910",
      "category": "weather"
    },
    {
      "name": "ARKTIKA-M 1",
      "norad_id": 47719,
      "intl_designator": "21016-261",
      "line1": "1 47719U 21016A   26180.95192977 -.00000281  00000+0  00000+0 0  9994",
      "line2": "2 47719  63.2520  55.7907 7292817 269.9910  14.5481  2.00617895 39040",
      "category": "weather"
    },
    {
      "name": "FENGYUN 3E",
      "norad_id": 49008,
      "intl_designator": "21062-261",
      "line1": "1 49008U 21062A   26186.59355624 -.00000249  00000+0 -96466-4 0  9995",
      "line2": "2 49008  98.7495 189.7965 0002618  55.2654 304.8768 14.19904802259194",
      "category": "weather"
    },
    {
      "name": "GOES 18",
      "norad_id": 51850,
      "intl_designator": "22021-261",
      "line1": "1 51850U 22021A   26186.51850380  .00000110  00000+0  00000+0 0  9999",
      "line2": "2 51850   0.0358 224.8795 0000573 296.6336 171.6564  1.00272074  6777",
      "category": "weather"
    },
    {
      "name": "NOAA 21 (JPSS-2)",
      "norad_id": 54234,
      "intl_designator": "22150-261",
      "line1": "1 54234U 22150A   26186.36023005  .00000102  00000+0  69021-4 0  9994",
      "line2": "2 54234  98.7060 124.8441 0002564 121.6090 238.5337 14.19540000189126",
      "category": "weather"
    },
    {
      "name": "METEOSAT-12 (MTG-I1)",
      "norad_id": 54743,
      "intl_designator": "22170-261",
      "line1": "1 54743U 22170C   26186.36279293  .00000007  00000+0  00000+0 0  9994",
      "line2": "2 54743   0.7580  25.7060 0003482  76.0889 311.9731  1.00276450 13161",
      "category": "weather"
    },
    {
      "name": "TIANMU-1 03",
      "norad_id": 55973,
      "intl_designator": "23039-261",
      "line1": "1 55973U 23039A   26186.67253060  .00015444  00000+0  29875-3 0  9999",
      "line2": "2 55973  97.5245   1.3723 0003346  50.9394 309.2153 15.47841910183695",
      "category": "weather"
    },
    {
      "name": "TIANMU-1 04",
      "norad_id": 55974,
      "intl_designator": "23039-261",
      "line1": "1 55974U 23039B   26186.59014366  .00016596  00000+0  31409-3 0  9990",
      "line2": "2 55974  97.5179   0.4422 0003854  46.1919 313.9649 15.48455479183696",
      "category": "weather"
    },
    {
      "name": "TIANMU-1 05",
      "norad_id": 55975,
      "intl_designator": "23039-261",
      "line1": "1 55975U 23039C   26186.65419620  .00015513  00000+0  30087-3 0  9999",
      "line2": "2 55975  97.5226   0.9616 0003633  70.8519 289.3124 15.47764292183672",
      "category": "weather"
    },
    {
      "name": "TIANMU-1 06",
      "norad_id": 55976,
      "intl_designator": "23039-261",
      "line1": "1 55976U 23039D   26186.59469410  .00016646  00000+0  31614-3 0  9990",
      "line2": "2 55976  97.5232   1.5542 0003834  64.9622 295.2026 15.48354195183694",
      "category": "weather"
    },
    {
      "name": "FENGYUN 3G",
      "norad_id": 56232,
      "intl_designator": "23055-261",
      "line1": "1 56232U 23055A   26186.57247670  .00024598  00000+0  38565-3 0  9991",
      "line2": "2 56232  49.9918 251.2338 0007271  13.5695 346.5467 15.53481035182865",
      "category": "weather"
    },
    {
      "name": "METEOR-M2 3",
      "norad_id": 57166,
      "intl_designator": "23091-261",
      "line1": "1 57166U 23091A   26186.64770779  .00000004  00000+0  20360-4 0  9998",
      "line2": "2 57166  98.6078 241.2475 0005085 111.6390 248.5331 14.24048407157147",
      "category": "weather"
    },
    {
      "name": "TIANMU-1 07",
      "norad_id": 57399,
      "intl_designator": "23101-261",
      "line1": "1 57399U 23101A   26186.60992468  .00007654  00000+0  26576-3 0  9997",
      "line2": "2 57399  97.2578 236.8564 0004209  84.3079 275.8642 15.30035513164464",
      "category": "weather"
    },
    {
      "name": "TIANMU-1 08",
      "norad_id": 57400,
      "intl_designator": "23101-261",
      "line1": "1 57400U 23101B   26186.57651610  .00007254  00000+0  25193-3 0  9997",
      "line2": "2 57400  97.2566 236.5917 0005332  71.1172 289.0647 15.30039781164451",
      "category": "weather"
    },
    {
      "name": "TIANMU-1 09",
      "norad_id": 57401,
      "intl_designator": "23101-261",
      "line1": "1 57401U 23101C   26186.62492311  .00007780  00000+0  26970-3 0  9993",
      "line2": "2 57401  97.2525 236.0454 0004791  86.0006 274.1782 15.30078932164464",
      "category": "weather"
    },
    {
      "name": "TIANMU-1 10",
      "norad_id": 57402,
      "intl_designator": "23101-261",
      "line1": "1 57402U 23101D   26186.59290314  .00007352  00000+0  25517-3 0  9990",
      "line2": "2 57402  97.2604 237.0835 0006262  79.5273 280.6674 15.30051913164456",
      "category": "weather"
    },
    {
      "name": "FENGYUN 3F",
      "norad_id": 57490,
      "intl_designator": "23111-261",
      "line1": "1 57490U 23111A   26186.64750014  .00000065  00000+0  51155-4 0  9994",
      "line2": "2 57490  98.6829 256.3117 0001453  81.0247 279.1094 14.19942372151482",
      "category": "weather"
    },
    {
      "name": "ARKTIKA-M 2",
      "norad_id": 58584,
      "intl_designator": "23198-261",
      "line1": "1 58584U 23198A   26180.72239164  .00000148  00000+0  00000+0 0  9995",
      "line2": "2 58584  63.2199 152.9641 6905877 267.3845  18.7575  2.00610643 18573",
      "category": "weather"
    },
    {
      "name": "TIANMU-1 11",
      "norad_id": 58645,
      "intl_designator": "23205-261",
      "line1": "1 58645U 23205A   26186.59745823  .00006838  00000+0  25910-3 0  9990",
      "line2": "2 58645  97.3443 207.8666 0006965 305.3511  54.7077 15.27195043140337",
      "category": "weather"
    },
    {
      "name": "TIANMU-1 12",
      "norad_id": 58646,
      "intl_designator": "23205-261",
      "line1": "1 58646U 23205B   26186.56878847  .00006310  00000+0  24062-3 0  9993",
      "line2": "2 58646  97.3431 207.5893 0005466 279.6233  80.4388 15.27023525140317",
      "category": "weather"
    },
    {
      "name": "TIANMU-1 13",
      "norad_id": 58647,
      "intl_designator": "23205-261",
      "line1": "1 58647U 23205C   26186.60218387  .00007138  00000+0  27187-3 0  9996",
      "line2": "2 58647  97.3459 207.8987 0005048 255.1704 104.8976 15.27016934140313",
      "category": "weather"
    },
    {
      "name": "TIANMU-1 14",
      "norad_id": 58648,
      "intl_designator": "23205-261",
      "line1": "1 58648U 23205D   26186.58685220  .00006748  00000+0  25679-3 0  9998",
      "line2": "2 58648  97.3395 207.0510 0005797 262.9904  97.0675 15.27061240140315",
      "category": "weather"
    },
    {
      "name": "TIANMU-1 19",
      "norad_id": 58660,
      "intl_designator": "23208-261",
      "line1": "1 58660U 23208A   26186.57900242  .00009067  00000+0  29713-3 0  9998",
      "line2": "2 58660  97.4519 302.9775 0003758 238.2537 121.8339 15.31868843140142",
      "category": "weather"
    }
  ]
}